{
  "type": "FeatureCollection",
  "properties": {
    "kind": "numerical_candidate_good_region_not_proof",
    "eta": 0.01,
    "qhat_star": 134.22832079834427,
    "threshold": 135.57060400632773,
    "approximate_area_m2": 77.14527994505771,
    "evidence_config_id": "q2-final-evidence-v2-production",
    "resolution": {
      "base": 21,
      "max_refinement_depth": 5,
      "target_boundary_resolution_m": 5.0
    }
  },
  "features": [
    {
      "type": "Feature",
      "geometry": {
        "type": "Point",
        "coordinates": [
          810.2806360210991,
          592.5990173675134
        ]
      },
      "properties": {
        "Q_m": 134.10936946403933,
        "eta": 0.01,
        "kind": "sample"
      }
    },
    {
      "type": "Feature",
      "geometry": {
        "type": "Point",
        "coordinates": [
          805.5697020907439,
          598.7399398272803
        ]
      },
      "properties": {
        "Q_m": 134.12304510871857,
        "eta": 0.01,
        "kind": "sample"
      }
    },
    {
      "type": "Feature",
      "geometry": {
        "type": "Point",
        "coordinates": [
          796.1478342300335,
          611.0217847468143
        ]
      },
      "properties": {
        "Q_m": 134.17062013421315,
        "eta": 0.01,
        "kind": "sample"
      }
    },
    {
      "type": "Feature",
      "geometry": {
        "type": "Point",
        "coordinates": [
          796.1478342300335,
          -611.0217847468143
        ]
      },
      "properties": {
        "Q_m": 134.17062013421355,
        "eta": 0.01,
        "kind": "sample"
      }
    },
    {
      "type": "Feature",
      "geometry": {
        "type": "Point",
        "coordinates": [
          815.7767256065135,
          584.9228642928045
        ]
      },
      "properties": {
        "Q_m": 134.17590368695835,
        "eta": 0.01,
        "kind": "sample"
      }
    },
    {
      "type": "Feature",
      "geometry": {
        "type": "Point",
        "coordinates": [
          822.4307462675218,
          -575.9384647646125
        ]
      },
      "properties": {
        "Q_m": 134.22832079834367,
        "eta": 0.01,
        "kind": "sample"
      }
    },
    {
      "type": "Feature",
      "geometry": {
        "type": "Point",
        "coordinates": [
          822.4307462675218,
          575.9384647646125
        ]
      },
      "properties": {
        "Q_m": 134.22832079834427,
        "eta": 0.01,
        "kind": "sample"
      }
    },
    {
      "type": "Feature",
      "geometry": {
        "type": "Point",
        "coordinates": [
          786.725966369323,
          -623.3036296663483
        ]
      },
      "properties": {
        "Q_m": 134.24374496969335,
        "eta": 0.01,
        "kind": "sample"
      }
    },
    {
      "type": "Feature",
      "geometry": {
        "type": "Point",
        "coordinates": [
          786.725966369323,
          623.3036296663483
        ]
      },
      "properties": {
        "Q_m": 134.24374496969443,
        "eta": 0.01,
        "kind": "sample"
      }
    },
    {
      "type": "Feature",
      "geometry": {
        "type": "Point",
        "coordinates": [
          816.5618812615728,
          -583.3876336778629
        ]
      },
      "properties": {
        "Q_m": 134.2498633965104,
        "eta": 0.01,
        "kind": "sample"
      }
    },
    {
      "type": "Feature",
      "geometry": {
        "type": "Point",
        "coordinates": [
          816.5618812615728,
          583.3876336778628
        ]
      },
      "properties": {
        "Q_m": 134.24986339651102,
        "eta": 0.01,
        "kind": "sample"
      }
    },
    {
      "type": "Feature",
      "geometry": {
        "type": "Point",
        "coordinates": [
          811.8509473312175,
          589.5285561376298
        ]
      },
      "properties": {
        "Q_m": 134.25168501314863,
        "eta": 0.01,
        "kind": "sample"
      }
    },
    {
      "type": "Feature",
      "geometry": {
        "type": "Point",
        "coordinates": [
          821.272815191928,
          577.2467112180959
        ]
      },
      "properties": {
        "Q_m": 134.2554792113838,
        "eta": 0.01,
        "kind": "sample"
      }
    },
    {
      "type": "Feature",
      "geometry": {
        "type": "Point",
        "coordinates": [
          807.1400134008622,
          595.6694785973968
        ]
      },
      "properties": {
        "Q_m": 134.2606974670684,
        "eta": 0.01,
        "kind": "sample"
      }
    },
    {
      "type": "Feature",
      "geometry": {
        "type": "Point",
        "coordinates": [
          797.7181455401519,
          -607.9513235169309
        ]
      },
      "properties": {
        "Q_m": 134.2993628402505,
        "eta": 0.01,
        "kind": "sample"
      }
    },
    {
      "type": "Feature",
      "geometry": {
        "type": "Point",
        "coordinates": [
          797.7181455401519,
          607.9513235169308
        ]
      },
      "properties": {
        "Q_m": 134.2993628402507,
        "eta": 0.01,
        "kind": "sample"
      }
    },
    {
      "type": "Feature",
      "geometry": {
        "type": "Point",
        "coordinates": [
          812.6361029862767,
          587.9933255226881
        ]
      },
      "properties": {
        "Q_m": 134.324005645426,
        "eta": 0.01,
        "kind": "sample"
      }
    },
    {
      "type": "Feature",
      "geometry": {
        "type": "Point",
        "coordinates": [
          807.9251690559215,
          594.1342479824551
        ]
      },
      "properties": {
        "Q_m": 134.33065341100246,
        "eta": 0.01,
        "kind": "sample"
      }
    },
    {
      "type": "Feature",
      "geometry": {
        "type": "Point",
        "coordinates": [
          822.0579708469872,
          575.7114806031542
        ]
      },
      "properties": {
        "Q_m": 134.3327574935386,
        "eta": 0.01,
        "kind": "sample"
      }
    },
    {
      "type": "Feature",
      "geometry": {
        "type": "Point",
        "coordinates": [
          826.7689047773424,
          569.5705581433872
        ]
      },
      "properties": {
        "Q_m": 134.34866886250964,
        "eta": 0.01,
        "kind": "sample"
      }
    },
    {
      "type": "Feature",
      "geometry": {
        "type": "Point",
        "coordinates": [
          788.2962776794413,
          -620.2331684364649
        ]
      },
      "properties": {
        "Q_m": 134.36409588432758,
        "eta": 0.01,
        "kind": "sample"
      }
    },
    {
      "type": "Feature",
      "geometry": {
        "type": "Point",
        "coordinates": [
          788.2962776794413,
          620.2331684364648
        ]
      },
      "properties": {
        "Q_m": 134.3640958843282,
        "eta": 0.01,
        "kind": "sample"
      }
    },
    {
      "type": "Feature",
      "geometry": {
        "type": "Point",
        "coordinates": [
          813.421258641336,
          586.4580949077463
        ]
      },
      "properties": {
        "Q_m": 134.39711055748356,
        "eta": 0.01,
        "kind": "sample"
      }
    },
    {
      "type": "Feature",
      "geometry": {
        "type": "Point",
        "coordinates": [
          818.1321925716912,
          580.3171724479794
        ]
      },
      "properties": {
        "Q_m": 134.40019163748389,
        "eta": 0.01,
        "kind": "sample"
      }
    },
    {
      "type": "Feature",
      "geometry": {
        "type": "Point",
        "coordinates": [
          808.7103247109807,
          592.5990173675134
        ]
      },
      "properties": {
        "Q_m": 134.40137121518643,
        "eta": 0.01,
        "kind": "sample"
      }
    },
    {
      "type": "Feature",
      "geometry": {
        "type": "Point",
        "coordinates": [
          822.8431265020464,
          574.1762499882125
        ]
      },
      "properties": {
        "Q_m": 134.4108678410121,
        "eta": 0.01,
        "kind": "sample"
      }
    },
    {
      "type": "Feature",
      "geometry": {
        "type": "Point",
        "coordinates": [
          827.5540604324016,
          -568.0353275284456
        ]
      },
      "properties": {
        "Q_m": 134.42940458095282,
        "eta": 0.01,
        "kind": "sample"
      }
    },
    {
      "type": "Feature",
      "geometry": {
        "type": "Point",
        "coordinates": [
          827.5540604324016,
          568.0353275284454
        ]
      },
      "properties": {
        "Q_m": 134.42940458095325,
        "eta": 0.01,
        "kind": "sample"
      }
    },
    {
      "type": "Feature",
      "geometry": {
        "type": "Point",
        "coordinates": [
          778.874409818731,
          -632.5150133559988
        ]
      },
      "properties": {
        "Q_m": 134.45328182790047,
        "eta": 0.01,
        "kind": "sample"
      }
    },
    {
      "type": "Feature",
      "geometry": {
        "type": "Point",
        "coordinates": [
          778.874409818731,
          632.5150133559987
        ]
      },
      "properties": {
        "Q_m": 134.4532818279011,
        "eta": 0.01,
        "kind": "sample"
      }
    },
    {
      "type": "Feature",
      "geometry": {
        "type": "Point",
        "coordinates": [
          814.2064142963952,
          584.9228642928045
        ]
      },
      "properties": {
        "Q_m": 134.47100662948915,
        "eta": 0.01,
        "kind": "sample"
      }
    },
    {
      "type": "Feature",
      "geometry": {
        "type": "Point",
        "coordinates": [
          809.4954803660398,
          591.0637867525716
        ]
      },
      "properties": {
        "Q_m": 134.47285748664967,
        "eta": 0.01,
        "kind": "sample"
      }
    },
    {
      "type": "Feature",
      "geometry": {
        "type": "Point",
        "coordinates": [
          789.8665889895598,
          -617.1627072065814
        ]
      },
      "properties": {
        "Q_m": 134.48714796858124,
        "eta": 0.01,
        "kind": "sample"
      }
    },
    {
      "type": "Feature",
      "geometry": {
        "type": "Point",
        "coordinates": [
          789.8665889895598,
          617.1627072065812
        ]
      },
      "properties": {
        "Q_m": 134.4871479685823,
        "eta": 0.01,
        "kind": "sample"
      }
    },
    {
      "type": "Feature",
      "geometry": {
        "type": "Point",
        "coordinates": [
          823.6282821571056,
          572.6410193732706
        ]
      },
      "properties": {
        "Q_m": 134.4898177258065,
        "eta": 0.01,
        "kind": "sample"
      }
    },
    {
      "type": "Feature",
      "geometry": {
        "type": "Point",
        "coordinates": [
          828.3392160874607,
          566.5000969135036
        ]
      },
      "properties": {
        "Q_m": 134.51100563500304,
        "eta": 0.01,
        "kind": "sample"
      }
    },
    {
      "type": "Feature",
      "geometry": {
        "type": "Point",
        "coordinates": [
          833.0501500178161,
          560.3591744537367
        ]
      },
      "properties": {
        "Q_m": 134.54042020580843,
        "eta": 0.01,
        "kind": "sample"
      }
    },
    {
      "type": "Feature",
      "geometry": {
        "type": "Point",
        "coordinates": [
          810.2806360210991,
          589.5285561376298
        ]
      },
      "properties": {
        "Q_m": 134.54511890910368,
        "eta": 0.01,
        "kind": "sample"
      }
    },
    {
      "type": "Feature",
      "geometry": {
        "type": "Point",
        "coordinates": [
          810.2806360210991,
          -589.52855613763
        ]
      },
      "properties": {
        "Q_m": 134.5451189091045,
        "eta": 0.01,
        "kind": "sample"
      }
    },
    {
      "type": "Feature",
      "geometry": {
        "type": "Point",
        "coordinates": [
          814.9915699514544,
          583.3876336778628
        ]
      },
      "properties": {
        "Q_m": 134.54570082235597,
        "eta": 0.01,
        "kind": "sample"
      }
    },
    {
      "type": "Feature",
      "geometry": {
        "type": "Point",
        "coordinates": [
          819.7025038818097,
          577.2467112180959
        ]
      },
      "properties": {
        "Q_m": 134.55377929017047,
        "eta": 0.01,
        "kind": "sample"
      }
    },
    {
      "type": "Feature",
      "geometry": {
        "type": "Point",
        "coordinates": [
          819.7025038818097,
          -577.2467112180959
        ]
      },
      "properties": {
        "Q_m": 134.5537792901711,
        "eta": 0.01,
        "kind": "sample"
      }
    },
    {
      "type": "Feature",
      "geometry": {
        "type": "Point",
        "coordinates": [
          800.8587681603888,
          601.8104010571637
        ]
      },
      "properties": {
        "Q_m": 134.56546117653573,
        "eta": 0.01,
        "kind": "sample"
      }
    },
    {
      "type": "Feature",
      "geometry": {
        "type": "Point",
        "coordinates": [
          800.8587681603888,
          -601.810401057164
        ]
      },
      "properties": {
        "Q_m": 134.56546117653593,
        "eta": 0.01,
        "kind": "sample"
      }
    },
    {
      "type": "Feature",
      "geometry": {
        "type": "Point",
        "coordinates": [
          824.4134378121648,
          -571.105788758329
        ]
      },
      "properties": {
        "Q_m": 134.5696147096105,
        "eta": 0.01,
        "kind": "sample"
      }
    },
    {
      "type": "Feature",
      "geometry": {
        "type": "Point",
        "coordinates": [
          824.4134378121648,
          571.1057887583289
        ]
      },
      "properties": {
        "Q_m": 134.56961470961116,
        "eta": 0.01,
        "kind": "sample"
      }
    },
    {
      "type": "Feature",
      "geometry": {
        "type": "Point",
        "coordinates": [
          829.12437174252,
          564.9648662985619
        ]
      },
      "properties": {
        "Q_m": 134.5934799120548,
        "eta": 0.01,
        "kind": "sample"
      }
    },
    {
      "type": "Feature",
      "geometry": {
        "type": "Point",
        "coordinates": [
          829.12437174252,
          -564.964866298562
        ]
      },
      "properties": {
        "Q_m": 134.59347991205544,
        "eta": 0.01,
        "kind": "sample"
      }
    },
    {
      "type": "Feature",
      "geometry": {
        "type": "Point",
        "coordinates": [
          791.4369002996782,
          -614.0922459766979
        ]
      },
      "properties": {
        "Q_m": 134.6129461402523,
        "eta": 0.01,
        "kind": "sample"
      }
    },
    {
      "type": "Feature",
      "geometry": {
        "type": "Point",
        "coordinates": [
          791.4369002996782,
          614.0922459766978
        ]
      },
      "properties": {
        "Q_m": 134.61294614025272,
        "eta": 0.01,
        "kind": "sample"
      }
    },
    {
      "type": "Feature",
      "geometry": {
        "type": "Point",
        "coordinates": [
          811.0657916761584,
          587.9933255226881
        ]
      },
      "properties": {
        "Q_m": 134.6181622440364,
        "eta": 0.01,
        "kind": "sample"
      }
    },
    {
      "type": "Feature",
      "geometry": {
        "type": "Point",
        "coordinates": [
          833.8353056728753,
          558.823943838795
        ]
      },
      "properties": {
        "Q_m": 134.62566091363271,
        "eta": 0.01,
        "kind": "sample"
      }
    },
    {
      "type": "Feature",
      "geometry": {
        "type": "Point",
        "coordinates": [
          820.4876595368688,
          575.7114806031542
        ]
      },
      "properties": {
        "Q_m": 134.6318135834176,
        "eta": 0.01,
        "kind": "sample"
      }
    },
    {
      "type": "Feature",
      "geometry": {
        "type": "Point",
        "coordinates": [
          825.198593467224,
          -569.5705581433873
        ]
      },
      "properties": {
        "Q_m": 134.65026644515436,
        "eta": 0.01,
        "kind": "sample"
      }
    },
    {
      "type": "Feature",
      "geometry": {
        "type": "Point",
        "coordinates": [
          825.198593467224,
          569.5705581433872
        ]
      },
      "properties": {
        "Q_m": 134.6502664451556,
        "eta": 0.01,
        "kind": "sample"
      }
    },
    {
      "type": "Feature",
      "geometry": {
        "type": "Point",
        "coordinates": [
          829.9095273975793,
          563.4296356836202
        ]
      },
      "properties": {
        "Q_m": 134.6768353955624,
        "eta": 0.01,
        "kind": "sample"
      }
    },
    {
      "type": "Feature",
      "geometry": {
        "type": "Point",
        "coordinates": [
          782.0150324389679,
          626.3740908962318
        ]
      },
      "properties": {
        "Q_m": 134.685872542038,
        "eta": 0.01,
        "kind": "sample"
      }
    },
    {
      "type": "Feature",
      "geometry": {
        "type": "Point",
        "coordinates": [
          782.0150324389679,
          -626.3740908962318
        ]
      },
      "properties": {
        "Q_m": 134.68587254203882,
        "eta": 0.01,
        "kind": "sample"
      }
    },
    {
      "type": "Feature",
      "geometry": {
        "type": "Point",
        "coordinates": [
          811.8509473312175,
          -586.4580949077465
        ]
      },
      "properties": {
        "Q_m": 134.69199433184724,
        "eta": 0.01,
        "kind": "sample"
      }
    },
    {
      "type": "Feature",
      "geometry": {
        "type": "Point",
        "coordinates": [
          811.8509473312175,
          586.4580949077463
        ]
      },
      "properties": {
        "Q_m": 134.6919943318483,
        "eta": 0.01,
        "kind": "sample"
      }
    },
    {
      "type": "Feature",
      "geometry": {
        "type": "Point",
        "coordinates": [
          807.1400134008622,
          592.5990173675134
        ]
      },
      "properties": {
        "Q_m": 134.69387674195406,
        "eta": 0.01,
        "kind": "sample"
      }
    },
    {
      "type": "Feature",
      "geometry": {
        "type": "Point",
        "coordinates": [
          802.4290794705071,
          -598.7399398272805
        ]
      },
      "properties": {
        "Q_m": 134.7029149993677,
        "eta": 0.01,
        "kind": "sample"
      }
    },
    {
      "type": "Feature",
      "geometry": {
        "type": "Point",
        "coordinates": [
          802.4290794705071,
          598.7399398272803
        ]
      },
      "properties": {
        "Q_m": 134.70291499936874,
        "eta": 0.01,
        "kind": "sample"
      }
    },
    {
      "type": "Feature",
      "geometry": {
        "type": "Point",
        "coordinates": [
          821.272815191928,
          -574.1762499882125
        ]
      },
      "properties": {
        "Q_m": 134.71068472828537,
        "eta": 0.01,
        "kind": "sample"
      }
    },
    {
      "type": "Feature",
      "geometry": {
        "type": "Point",
        "coordinates": [
          821.272815191928,
          574.1762499882125
        ]
      },
      "properties": {
        "Q_m": 134.71068472828557,
        "eta": 0.01,
        "kind": "sample"
      }
    },
    {
      "type": "Feature",
      "geometry": {
        "type": "Point",
        "coordinates": [
          834.6204613279344,
          557.2887132238533
        ]
      },
      "properties": {
        "Q_m": 134.71181047524422,
        "eta": 0.01,
        "kind": "sample"
      }
    },
    {
      "type": "Feature",
      "geometry": {
        "type": "Point",
        "coordinates": [
          825.9837491222831,
          -568.0353275284456
        ]
      },
      "properties": {
        "Q_m": 134.7317806775623,
        "eta": 0.01,
        "kind": "sample"
      }
    },
    {
      "type": "Feature",
      "geometry": {
        "type": "Point",
        "coordinates": [
          825.9837491222831,
          568.0353275284454
        ]
      },
      "properties": {
        "Q_m": 134.7317806775627,
        "eta": 0.01,
        "kind": "sample"
      }
    },
    {
      "type": "Feature",
      "geometry": {
        "type": "Point",
        "coordinates": [
          766.3119193377837,
          647.8673195054162
        ]
      },
      "properties": {
        "Q_m": 134.73344450023578,
        "eta": 0.01,
        "kind": "sample"
      }
    },
    {
      "type": "Feature",
      "geometry": {
        "type": "Point",
        "coordinates": [
          793.0072116097966,
          -611.0217847468143
        ]
      },
      "properties": {
        "Q_m": 134.74153632099328,
        "eta": 0.01,
        "kind": "sample"
      }
    },
    {
      "type": "Feature",
      "geometry": {
        "type": "Point",
        "coordinates": [
          793.0072116097966,
          611.0217847468143
        ]
      },
      "properties": {
        "Q_m": 134.7415363209937,
        "eta": 0.01,
        "kind": "sample"
      }
    },
    {
      "type": "Feature",
      "geometry": {
        "type": "Point",
        "coordinates": [
          839.3313952582897,
          551.1477907640863
        ]
      },
      "properties": {
        "Q_m": 134.75549595527986,
        "eta": 0.01,
        "kind": "sample"
      }
    },
    {
      "type": "Feature",
      "geometry": {
        "type": "Point",
        "coordinates": [
          830.6946830526384,
          561.8944050686785
        ]
      },
      "properties": {
        "Q_m": 134.7610801664906,
        "eta": 0.01,
        "kind": "sample"
      }
    },
    {
      "type": "Feature",
      "geometry": {
        "type": "Point",
        "coordinates": [
          807.9251690559215,
          591.0637867525716
        ]
      },
      "properties": {
        "Q_m": 134.76607859520414,
        "eta": 0.01,
        "kind": "sample"
      }
    },
    {
      "type": "Feature",
      "geometry": {
        "type": "Point",
        "coordinates": [
          812.6361029862767,
          584.9228642928045
        ]
      },
      "properties": {
        "Q_m": 134.76662209298627,
        "eta": 0.01,
        "kind": "sample"
      }
    },
    {
      "type": "Feature",
      "geometry": {
        "type": "Point",
        "coordinates": [
          772.5931645782573,
          638.6559358157657
        ]
      },
      "properties": {
        "Q_m": 134.7826812372463,
        "eta": 0.01,
        "kind": "sample"
      }
    },
    {
      "type": "Feature",
      "geometry": {
        "type": "Point",
        "coordinates": [
          772.5931645782573,
          -638.6559358157658
        ]
      },
      "properties": {
        "Q_m": 134.78268123724692,
        "eta": 0.01,
        "kind": "sample"
      }
    },
    {
      "type": "Feature",
      "geometry": {
        "type": "Point",
        "coordinates": [
          822.0579708469872,
          572.6410193732706
        ]
      },
      "properties": {
        "Q_m": 134.79040024084955,
        "eta": 0.01,
        "kind": "sample"
      }
    },
    {
      "type": "Feature",
      "geometry": {
        "type": "Point",
        "coordinates": [
          835.4056169829937,
          555.7534826089116
        ]
      },
      "properties": {
        "Q_m": 134.7988773265746,
        "eta": 0.01,
        "kind": "sample"
      }
    },
    {
      "type": "Feature",
      "geometry": {
        "type": "Point",
        "coordinates": [
          783.5853437490862,
          -623.3036296663483
        ]
      },
      "properties": {
        "Q_m": 134.80611177356315,
        "eta": 0.01,
        "kind": "sample"
      }
    },
    {
      "type": "Feature",
      "geometry": {
        "type": "Point",
        "coordinates": [
          783.5853437490862,
          623.3036296663483
        ]
      },
      "properties": {
        "Q_m": 134.80611177356337,
        "eta": 0.01,
        "kind": "sample"
      }
    },
    {
      "type": "Feature",
      "geometry": {
        "type": "Point",
        "coordinates": [
          826.7689047773424,
          566.5000969135036
        ]
      },
      "properties": {
        "Q_m": 134.81416524573896,
        "eta": 0.01,
        "kind": "sample"
      }
    },
    {
      "type": "Feature",
      "geometry": {
        "type": "Point",
        "coordinates": [
          808.7103247109807,
          589.5285561376298
        ]
      },
      "properties": {
        "Q_m": 134.8390600037653,
        "eta": 0.01,
        "kind": "sample"
      }
    },
    {
      "type": "Feature",
      "geometry": {
        "type": "Point",
        "coordinates": [
          813.421258641336,
          583.3876336778628
        ]
      },
      "properties": {
        "Q_m": 134.8420525291193,
        "eta": 0.01,
        "kind": "sample"
      }
    },
    {
      "type": "Feature",
      "geometry": {
        "type": "Point",
        "coordinates": [
          813.421258641336,
          -583.3876336778629
        ]
      },
      "properties": {
        "Q_m": 134.84205252912054,
        "eta": 0.01,
        "kind": "sample"
      }
    },
    {
      "type": "Feature",
      "geometry": {
        "type": "Point",
        "coordinates": [
          803.9993907806255,
          595.6694785973968
        ]
      },
      "properties": {
        "Q_m": 134.84337259950556,
        "eta": 0.01,
        "kind": "sample"
      }
    },
    {
      "type": "Feature",
      "geometry": {
        "type": "Point",
        "coordinates": [
          803.9993907806255,
          -595.669478597397
        ]
      },
      "properties": {
        "Q_m": 134.84337259950618,
        "eta": 0.01,
        "kind": "sample"
      }
    },
    {
      "type": "Feature",
      "geometry": {
        "type": "Point",
        "coordinates": [
          840.1165509133489,
          549.6125601491444
        ]
      },
      "properties": {
        "Q_m": 134.84548076511243,
        "eta": 0.01,
        "kind": "sample"
      }
    },
    {
      "type": "Feature",
      "geometry": {
        "type": "Point",
        "coordinates": [
          831.4798387076976,
          560.3591744537367
        ]
      },
      "properties": {
        "Q_m": 134.8462224047901,
        "eta": 0.01,
        "kind": "sample"
      }
    },
    {
      "type": "Feature",
      "geometry": {
        "type": "Point",
        "coordinates": [
          822.8431265020464,
          571.1057887583289
        ]
      },
      "properties": {
        "Q_m": 134.8709677274129,
        "eta": 0.01,
        "kind": "sample"
      }
    },
    {
      "type": "Feature",
      "geometry": {
        "type": "Point",
        "coordinates": [
          822.8431265020464,
          -571.105788758329
        ]
      },
      "properties": {
        "Q_m": 134.87096772741376,
        "eta": 0.01,
        "kind": "sample"
      }
    },
    {
      "type": "Feature",
      "geometry": {
        "type": "Point",
        "coordinates": [
          794.577522919915,
          607.9513235169308
        ]
      },
      "properties": {
        "Q_m": 134.87296546427734,
        "eta": 0.01,
        "kind": "sample"
      }
    },
    {
      "type": "Feature",
      "geometry": {
        "type": "Point",
        "coordinates": [
          794.577522919915,
          -607.9513235169309
        ]
      },
      "properties": {
        "Q_m": 134.87296546427777,
        "eta": 0.01,
        "kind": "sample"
      }
    },
    {
      "type": "Feature",
      "geometry": {
        "type": "Point",
        "coordinates": [
          774.1634758883757,
          -635.5854745858824
        ]
      },
      "properties": {
        "Q_m": 134.89504150934206,
        "eta": 0.01,
        "kind": "sample"
      }
    },
    {
      "type": "Feature",
      "geometry": {
        "type": "Point",
        "coordinates": [
          774.1634758883757,
          635.5854745858821
        ]
      },
      "properties": {
        "Q_m": 134.8950415093429,
        "eta": 0.01,
        "kind": "sample"
      }
    },
    {
      "type": "Feature",
      "geometry": {
        "type": "Point",
        "coordinates": [
          827.5540604324016,
          564.9648662985619
        ]
      },
      "properties": {
        "Q_m": 134.89742808378358,
        "eta": 0.01,
        "kind": "sample"
      }
    },
    {
      "type": "Feature",
      "geometry": {
        "type": "Point",
        "coordinates": [
          763.171296717547,
          650.9377807352996
        ]
      },
      "properties": {
        "Q_m": 134.901940643606,
        "eta": 0.01,
        "kind": "sample"
      }
    },
    {
      "type": "Feature",
      "geometry": {
        "type": "Point",
        "coordinates": [
          785.1556550592046,
          620.2331684364648
        ]
      },
      "properties": {
        "Q_m": 134.92903792282627,
        "eta": 0.01,
        "kind": "sample"
      }
    },
    {
      "type": "Feature",
      "geometry": {
        "type": "Point",
        "coordinates": [
          785.1556550592046,
          -620.2331684364649
        ]
      },
      "properties": {
        "Q_m": 134.92903792282712,
        "eta": 0.01,
        "kind": "sample"
      }
    },
    {
      "type": "Feature",
      "geometry": {
        "type": "Point",
        "coordinates": [
          832.2649943627569,
          558.823943838795
        ]
      },
      "properties": {
        "Q_m": 134.93227039092173,
        "eta": 0.01,
        "kind": "sample"
      }
    },
    {
      "type": "Feature",
      "geometry": {
        "type": "Point",
        "coordinates": [
          840.9017065684081,
          548.0773295342027
        ]
      },
      "properties": {
        "Q_m": 134.93642107176677,
        "eta": 0.01,
        "kind": "sample"
      }
    },
    {
      "type": "Feature",
      "geometry": {
        "type": "Point",
        "coordinates": [
          823.6282821571056,
          -569.5705581433873
        ]
      },
      "properties": {
        "Q_m": 134.95239488584983,
        "eta": 0.01,
        "kind": "sample"
      }
    },
    {
      "type": "Feature",
      "geometry": {
        "type": "Point",
        "coordinates": [
          823.6282821571056,
          569.5705581433872
        ]
      },
      "properties": {
        "Q_m": 134.95239488585,
        "eta": 0.01,
        "kind": "sample"
      }
    },
    {
      "type": "Feature",
      "geometry": {
        "type": "Point",
        "coordinates": [
          763.9564523726061,
          649.4025501203579
        ]
      },
      "properties": {
        "Q_m": 134.95409927651795,
        "eta": 0.01,
        "kind": "sample"
      }
    },
    {
      "type": "Feature",
      "geometry": {
        "type": "Point",
        "coordinates": [
          758.4603627871917,
          657.0787031950666
        ]
      },
      "properties": {
        "Q_m": 134.96957369129092,
        "eta": 0.01,
        "kind": "sample"
      }
    },
    {
      "type": "Feature",
      "geometry": {
        "type": "Point",
        "coordinates": [
          836.9759282931121,
          552.683021379028
        ]
      },
      "properties": {
        "Q_m": 134.97579716653755,
        "eta": 0.01,
        "kind": "sample"
      }
    },
    {
      "type": "Feature",
      "geometry": {
        "type": "Point",
        "coordinates": [
          805.5697020907439,
          592.5990173675134
        ]
      },
      "properties": {
        "Q_m": 134.98688594034076,
        "eta": 0.01,
        "kind": "sample"
      }
    },
    {
      "type": "Feature",
      "geometry": {
        "type": "Point",
        "coordinates": [
          810.2806360210991,
          586.4580949077463
        ]
      },
      "properties": {
        "Q_m": 134.98738876993258,
        "eta": 0.01,
        "kind": "sample"
      }
    },
    {
      "type": "Feature",
      "geometry": {
        "type": "Point",
        "coordinates": [
          814.9915699514544,
          -580.3171724479794
        ]
      },
      "properties": {
        "Q_m": 134.99534984626106,
        "eta": 0.01,
        "kind": "sample"
      }
    },
    {
      "type": "Feature",
      "geometry": {
        "type": "Point",
        "coordinates": [
          814.9915699514544,
          580.3171724479794
        ]
      },
      "properties": {
        "Q_m": 134.99534984626212,
        "eta": 0.01,
        "kind": "sample"
      }
    },
    {
      "type": "Feature",
      "geometry": {
        "type": "Point",
        "coordinates": [
          764.7416080276653,
          647.8673195054162
        ]
      },
      "properties": {
        "Q_m": 135.00685726174444,
        "eta": 0.01,
        "kind": "sample"
      }
    },
    {
      "type": "Feature",
      "geometry": {
        "type": "Point",
        "coordinates": [
          796.1478342300335,
          604.8808622870472
        ]
      },
      "properties": {
        "Q_m": 135.00728158429988,
        "eta": 0.01,
        "kind": "sample"
      }
    },
    {
      "type": "Feature",
      "geometry": {
        "type": "Point",
        "coordinates": [
          796.1478342300335,
          -604.8808622870474
        ]
      },
      "properties": {
        "Q_m": 135.0072815843005,
        "eta": 0.01,
        "kind": "sample"
      }
    },
    {
      "type": "Feature",
      "geometry": {
        "type": "Point",
        "coordinates": [
          775.7337871984942,
          -632.5150133559988
        ]
      },
      "properties": {
        "Q_m": 135.00994817912212,
        "eta": 0.01,
        "kind": "sample"
      }
    },
    {
      "type": "Feature",
      "geometry": {
        "type": "Point",
        "coordinates": [
          775.7337871984942,
          632.5150133559987
        ]
      },
      "properties": {
        "Q_m": 135.00994817912297,
        "eta": 0.01,
        "kind": "sample"
      }
    },
    {
      "type": "Feature",
      "geometry": {
        "type": "Point",
        "coordinates": [
          819.7025038818097,
          574.1762499882125
        ]
      },
      "properties": {
        "Q_m": 135.01102680317072,
        "eta": 0.01,
        "kind": "sample"
      }
    },
    {
      "type": "Feature",
      "geometry": {
        "type": "Point",
        "coordinates": [
          833.0501500178161,
          557.2887132238533
        ]
      },
      "properties": {
        "Q_m": 135.01923250736505,
        "eta": 0.01,
        "kind": "sample"
      }
    },
    {
      "type": "Feature",
      "geometry": {
        "type": "Point",
        "coordinates": [
          759.2455184422508,
          655.5434725801249
        ]
      },
      "properties": {
        "Q_m": 135.01995538684386,
        "eta": 0.01,
        "kind": "sample"
      }
    },
    {
      "type": "Feature",
      "geometry": {
        "type": "Point",
        "coordinates": [
          841.6868622234673,
          546.542098919261
        ]
      },
      "properties": {
        "Q_m": 135.02832590938254,
        "eta": 0.01,
        "kind": "sample"
      }
    },
    {
      "type": "Feature",
      "geometry": {
        "type": "Point",
        "coordinates": [
          824.4134378121648,
          -568.0353275284456
        ]
      },
      "properties": {
        "Q_m": 135.03468950697803,
        "eta": 0.01,
        "kind": "sample"
      }
    },
    {
      "type": "Feature",
      "geometry": {
        "type": "Point",
        "coordinates": [
          824.4134378121648,
          568.0353275284454
        ]
      },
      "properties": {
        "Q_m": 135.03468950697928,
        "eta": 0.01,
        "kind": "sample"
      }
    },
    {
      "type": "Feature",
      "geometry": {
        "type": "Point",
        "coordinates": [
          786.725966369323,
          -617.1627072065814
        ]
      },
      "properties": {
        "Q_m": 135.05469543647152,
        "eta": 0.01,
        "kind": "sample"
      }
    },
    {
      "type": "Feature",
      "geometry": {
        "type": "Point",
        "coordinates": [
          786.725966369323,
          617.1627072065812
        ]
      },
      "properties": {
        "Q_m": 135.0546954364728,
        "eta": 0.01,
        "kind": "sample"
      }
    },
    {
      "type": "Feature",
      "geometry": {
        "type": "Point",
        "coordinates": [
          765.5267636827245,
          646.3320888904744
        ]
      },
      "properties": {
        "Q_m": 135.06021930996252,
        "eta": 0.01,
        "kind": "sample"
      }
    },
    {
      "type": "Feature",
      "geometry": {
        "type": "Point",
        "coordinates": [
          811.0657916761584,
          584.9228642928045
        ]
      },
      "properties": {
        "Q_m": 135.06274996867228,
        "eta": 0.01,
        "kind": "sample"
      }
    },
    {
      "type": "Feature",
      "geometry": {
        "type": "Point",
        "coordinates": [
          837.7610839481713,
          551.1477907640863
        ]
      },
      "properties": {
        "Q_m": 135.0656675563126,
        "eta": 0.01,
        "kind": "sample"
      }
    },
    {
      "type": "Feature",
      "geometry": {
        "type": "Point",
        "coordinates": [
          829.12437174252,
          561.8944050686785
        ]
      },
      "properties": {
        "Q_m": 135.06662079048476,
        "eta": 0.01,
        "kind": "sample"
      }
    },
    {
      "type": "Feature",
      "geometry": {
        "type": "Point",
        "coordinates": [
          760.0306740973101,
          654.0082419651831
        ]
      },
      "properties": {
        "Q_m": 135.07092124028193,
        "eta": 0.01,
        "kind": "sample"
      }
    },
    {
      "type": "Feature",
      "geometry": {
        "type": "Point",
        "coordinates": [
          754.5345845118957,
          661.6843950398919
        ]
      },
      "properties": {
        "Q_m": 135.09098674484505,
        "eta": 0.01,
        "kind": "sample"
      }
    },
    {
      "type": "Feature",
      "geometry": {
        "type": "Point",
        "coordinates": [
          820.4876595368688,
          572.6410193732706
        ]
      },
      "properties": {
        "Q_m": 135.0915097824112,
        "eta": 0.01,
        "kind": "sample"
      }
    },
    {
      "type": "Feature",
      "geometry": {
        "type": "Point",
        "coordinates": [
          833.8353056728753,
          555.7534826089116
        ]
      },
      "properties": {
        "Q_m": 135.1071172402074,
        "eta": 0.01,
        "kind": "sample"
      }
    },
    {
      "type": "Feature",
      "geometry": {
        "type": "Point",
        "coordinates": [
          766.3119193377837,
          644.7968582755327
        ]
      },
      "properties": {
        "Q_m": 135.11419018155144,
        "eta": 0.01,
        "kind": "sample"
      }
    },
    {
      "type": "Feature",
      "geometry": {
        "type": "Point",
        "coordinates": [
          825.198593467224,
          566.5000969135036
        ]
      },
      "properties": {
        "Q_m": 135.1178594759565,
        "eta": 0.01,
        "kind": "sample"
      }
    },
    {
      "type": "Feature",
      "geometry": {
        "type": "Point",
        "coordinates": [
          825.198593467224,
          -566.5000969135037
        ]
      },
      "properties": {
        "Q_m": 135.11785947595672,
        "eta": 0.01,
        "kind": "sample"
      }
    },
    {
      "type": "Feature",
      "geometry": {
        "type": "Point",
        "coordinates": [
          777.3040985086126,
          629.4445521261152
        ]
      },
      "properties": {
        "Q_m": 135.12744246317175,
        "eta": 0.01,
        "kind": "sample"
      }
    },
    {
      "type": "Feature",
      "geometry": {
        "type": "Point",
        "coordinates": [
          777.3040985086126,
          -629.4445521261152
        ]
      },
      "properties": {
        "Q_m": 135.12744246317217,
        "eta": 0.01,
        "kind": "sample"
      }
    },
    {
      "type": "Feature",
      "geometry": {
        "type": "Point",
        "coordinates": [
          807.1400134008622,
          589.5285561376298
        ]
      },
      "properties": {
        "Q_m": 135.13350819173695,
        "eta": 0.01,
        "kind": "sample"
      }
    },
    {
      "type": "Feature",
      "geometry": {
        "type": "Point",
        "coordinates": [
          811.8509473312175,
          583.3876336778628
        ]
      },
      "properties": {
        "Q_m": 135.13891840731597,
        "eta": 0.01,
        "kind": "sample"
      }
    },
    {
      "type": "Feature",
      "geometry": {
        "type": "Point",
        "coordinates": [
          755.3197401669548,
          660.1491644249502
        ]
      },
      "properties": {
        "Q_m": 135.1402090714012,
        "eta": 0.01,
        "kind": "sample"
      }
    },
    {
      "type": "Feature",
      "geometry": {
        "type": "Point",
        "coordinates": [
          797.7181455401519,
          -601.810401057164
        ]
      },
      "properties": {
        "Q_m": 135.14453378584412,
        "eta": 0.01,
        "kind": "sample"
      }
    },
    {
      "type": "Feature",
      "geometry": {
        "type": "Point",
        "coordinates": [
          797.7181455401519,
          601.8104010571637
        ]
      },
      "properties": {
        "Q_m": 135.14453378584494,
        "eta": 0.01,
        "kind": "sample"
      }
    },
    {
      "type": "Feature",
      "geometry": {
        "type": "Point",
        "coordinates": [
          816.5618812615728,
          577.2467112180959
        ]
      },
      "properties": {
        "Q_m": 135.1519439664843,
        "eta": 0.01,
        "kind": "sample"
      }
    },
    {
      "type": "Feature",
      "geometry": {
        "type": "Point",
        "coordinates": [
          816.5618812615728,
          -577.2467112180959
        ]
      },
      "properties": {
        "Q_m": 135.1519439664845,
        "eta": 0.01,
        "kind": "sample"
      }
    },
    {
      "type": "Feature",
      "geometry": {
        "type": "Point",
        "coordinates": [
          829.9095273975793,
          560.3591744537367
        ]
      },
      "properties": {
        "Q_m": 135.1525670163668,
        "eta": 0.01,
        "kind": "sample"
      }
    },
    {
      "type": "Feature",
      "geometry": {
        "type": "Point",
        "coordinates": [
          838.5462396032306,
          549.6125601491444
        ]
      },
      "properties": {
        "Q_m": 135.15649004139811,
        "eta": 0.01,
        "kind": "sample"
      }
    },
    {
      "type": "Feature",
      "geometry": {
        "type": "Point",
        "coordinates": [
          821.272815191928,
          571.1057887583289
        ]
      },
      "properties": {
        "Q_m": 135.17284962222675,
        "eta": 0.01,
        "kind": "sample"
      }
    },
    {
      "type": "Feature",
      "geometry": {
        "type": "Point",
        "coordinates": [
          788.2962776794413,
          -614.0922459766979
        ]
      },
      "properties": {
        "Q_m": 135.1831297492296,
        "eta": 0.01,
        "kind": "sample"
      }
    },
    {
      "type": "Feature",
      "geometry": {
        "type": "Point",
        "coordinates": [
          788.2962776794413,
          614.0922459766978
        ]
      },
      "properties": {
        "Q_m": 135.18312974923023,
        "eta": 0.01,
        "kind": "sample"
      }
    },
    {
      "type": "Feature",
      "geometry": {
        "type": "Point",
        "coordinates": [
          847.1829518088816,
          538.8659458445524
        ]
      },
      "properties": {
        "Q_m": 135.1861813710891,
        "eta": 0.01,
        "kind": "sample"
      }
    },
    {
      "type": "Feature",
      "geometry": {
        "type": "Point",
        "coordinates": [
          847.1829518088816,
          -538.8659458445524
        ]
      },
      "properties": {
        "Q_m": 135.18618137108973,
        "eta": 0.01,
        "kind": "sample"
      }
    },
    {
      "type": "Feature",
      "geometry": {
        "type": "Point",
        "coordinates": [
          756.104895822014,
          658.6139338100083
        ]
      },
      "properties": {
        "Q_m": 135.19000530017098,
        "eta": 0.01,
        "kind": "sample"
      }
    },
    {
      "type": "Feature",
      "geometry": {
        "type": "Point",
        "coordinates": [
          834.6204613279344,
          554.2182519939697
        ]
      },
      "properties": {
        "Q_m": 135.19593318071486,
        "eta": 0.01,
        "kind": "sample"
      }
    },
    {
      "type": "Feature",
      "geometry": {
        "type": "Point",
        "coordinates": [
          825.9837491222831,
          -564.964866298562
        ]
      },
      "properties": {
        "Q_m": 135.20191277370247,
        "eta": 0.01,
        "kind": "sample"
      }
    },
    {
      "type": "Feature",
      "geometry": {
        "type": "Point",
        "coordinates": [
          825.9837491222831,
          564.9648662985619
        ]
      },
      "properties": {
        "Q_m": 135.2019127737031,
        "eta": 0.01,
        "kind": "sample"
      }
    },
    {
      "type": "Feature",
      "geometry": {
        "type": "Point",
        "coordinates": [
          830.6946830526384,
          558.823943838795
        ]
      },
      "properties": {
        "Q_m": 135.23942422956787,
        "eta": 0.01,
        "kind": "sample"
      }
    },
    {
      "type": "Feature",
      "geometry": {
        "type": "Point",
        "coordinates": [
          756.8900514770733,
          657.0787031950666
        ]
      },
      "properties": {
        "Q_m": 135.24037986066904,
        "eta": 0.01,
        "kind": "sample"
      }
    },
    {
      "type": "Feature",
      "geometry": {
        "type": "Point",
        "coordinates": [
          778.874409818731,
          626.3740908962318
        ]
      },
      "properties": {
        "Q_m": 135.24756647526755,
        "eta": 0.01,
        "kind": "sample"
      }
    },
    {
      "type": "Feature",
      "geometry": {
        "type": "Point",
        "coordinates": [
          778.874409818731,
          -626.3740908962318
        ]
      },
      "properties": {
        "Q_m": 135.2475664752686,
        "eta": 0.01,
        "kind": "sample"
      }
    },
    {
      "type": "Feature",
      "geometry": {
        "type": "Point",
        "coordinates": [
          839.3313952582897,
          548.0773295342027
        ]
      },
      "properties": {
        "Q_m": 135.24827359693248,
        "eta": 0.01,
        "kind": "sample"
      }
    },
    {
      "type": "Feature",
      "geometry": {
        "type": "Point",
        "coordinates": [
          763.171296717547,
          647.8673195054162
        ]
      },
      "properties": {
        "Q_m": 135.28071782051876,
        "eta": 0.01,
        "kind": "sample"
      }
    },
    {
      "type": "Feature",
      "geometry": {
        "type": "Point",
        "coordinates": [
          847.9681074639409,
          537.3307152296106
        ]
      },
      "properties": {
        "Q_m": 135.283187947739,
        "eta": 0.01,
        "kind": "sample"
      }
    },
    {
      "type": "Feature",
      "geometry": {
        "type": "Point",
        "coordinates": [
          847.9681074639409,
          -537.3307152296106
        ]
      },
      "properties": {
        "Q_m": 135.2831879477392,
        "eta": 0.01,
        "kind": "sample"
      }
    },
    {
      "type": "Feature",
      "geometry": {
        "type": "Point",
        "coordinates": [
          799.2884568502703,
          598.7399398272803
        ]
      },
      "properties": {
        "Q_m": 135.2847722951588,
        "eta": 0.01,
        "kind": "sample"
      }
    },
    {
      "type": "Feature",
      "geometry": {
        "type": "Point",
        "coordinates": [
          799.2884568502703,
          -598.7399398272805
        ]
      },
      "properties": {
        "Q_m": 135.28477229515943,
        "eta": 0.01,
        "kind": "sample"
      }
    },
    {
      "type": "Feature",
      "geometry": {
        "type": "Point",
        "coordinates": [
          835.4056169829937,
          552.683021379028
        ]
      },
      "properties": {
        "Q_m": 135.28568902696148,
        "eta": 0.01,
        "kind": "sample"
      }
    },
    {
      "type": "Feature",
      "geometry": {
        "type": "Point",
        "coordinates": [
          757.6752071321325,
          655.5434725801249
        ]
      },
      "properties": {
        "Q_m": 135.2913372283301,
        "eta": 0.01,
        "kind": "sample"
      }
    },
    {
      "type": "Feature",
      "geometry": {
        "type": "Point",
        "coordinates": [
          818.1321925716912,
          574.1762499882125
        ]
      },
      "properties": {
        "Q_m": 135.31189395047465,
        "eta": 0.01,
        "kind": "sample"
      }
    },
    {
      "type": "Feature",
      "geometry": {
        "type": "Point",
        "coordinates": [
          818.1321925716912,
          -574.1762499882125
        ]
      },
      "properties": {
        "Q_m": 135.31189395047488,
        "eta": 0.01,
        "kind": "sample"
      }
    },
    {
      "type": "Feature",
      "geometry": {
        "type": "Point",
        "coordinates": [
          763.9564523726061,
          646.3320888904744
        ]
      },
      "properties": {
        "Q_m": 135.3346735759014,
        "eta": 0.01,
        "kind": "sample"
      }
    },
    {
      "type": "Feature",
      "geometry": {
        "type": "Point",
        "coordinates": [
          822.8431265020464,
          -568.0353275284456
        ]
      },
      "properties": {
        "Q_m": 135.33813094959794,
        "eta": 0.01,
        "kind": "sample"
      }
    },
    {
      "type": "Feature",
      "geometry": {
        "type": "Point",
        "coordinates": [
          822.8431265020464,
          568.0353275284454
        ]
      },
      "properties": {
        "Q_m": 135.3381309495988,
        "eta": 0.01,
        "kind": "sample"
      }
    },
    {
      "type": "Feature",
      "geometry": {
        "type": "Point",
        "coordinates": [
          840.1165509133489,
          546.542098919261
        ]
      },
      "properties": {
        "Q_m": 135.3410273109751,
        "eta": 0.01,
        "kind": "sample"
      }
    },
    {
      "type": "Feature",
      "geometry": {
        "type": "Point",
        "coordinates": [
          758.4603627871917,
          654.0082419651831
        ]
      },
      "properties": {
        "Q_m": 135.34288192511048,
        "eta": 0.01,
        "kind": "sample"
      }
    },
    {
      "type": "Feature",
      "geometry": {
        "type": "Point",
        "coordinates": [
          780.4447211288494,
          623.3036296663483
        ]
      },
      "properties": {
        "Q_m": 135.3703632507227,
        "eta": 0.01,
        "kind": "sample"
      }
    },
    {
      "type": "Feature",
      "geometry": {
        "type": "Point",
        "coordinates": [
          780.4447211288494,
          -623.3036296663483
        ]
      },
      "properties": {
        "Q_m": 135.37036325072333,
        "eta": 0.01,
        "kind": "sample"
      }
    },
    {
      "type": "Feature",
      "geometry": {
        "type": "Point",
        "coordinates": [
          836.190772638053,
          551.1477907640863
        ]
      },
      "properties": {
        "Q_m": 135.37639358547477,
        "eta": 0.01,
        "kind": "sample"
      }
    },
    {
      "type": "Feature",
      "geometry": {
        "type": "Point",
        "coordinates": [
          764.7416080276653,
          644.7968582755327
        ]
      },
      "properties": {
        "Q_m": 135.3892414751518,
        "eta": 0.01,
        "kind": "sample"
      }
    },
    {
      "type": "Feature",
      "geometry": {
        "type": "Point",
        "coordinates": [
          759.2455184422508,
          652.4730113502413
        ]
      },
      "properties": {
        "Q_m": 135.39501852007766,
        "eta": 0.01,
        "kind": "sample"
      }
    },
    {
      "type": "Feature",
      "geometry": {
        "type": "Point",
        "coordinates": [
          844.827484843704,
          540.4011764594941
        ]
      },
      "properties": {
        "Q_m": 135.40577527984544,
        "eta": 0.01,
        "kind": "sample"
      }
    },
    {
      "type": "Feature",
      "geometry": {
        "type": "Point",
        "coordinates": [
          844.827484843704,
          -540.4011764594941
        ]
      },
      "properties": {
        "Q_m": 135.4057752798465,
        "eta": 0.01,
        "kind": "sample"
      }
    },
    {
      "type": "Feature",
      "geometry": {
        "type": "Point",
        "coordinates": [
          753.7494288568364,
          660.1491644249502
        ]
      },
      "properties": {
        "Q_m": 135.41031019729294,
        "eta": 0.01,
        "kind": "sample"
      }
    },
    {
      "type": "Feature",
      "geometry": {
        "type": "Point",
        "coordinates": [
          832.2649943627569,
          555.7534826089116
        ]
      },
      "properties": {
        "Q_m": 135.41590545070343,
        "eta": 0.01,
        "kind": "sample"
      }
    },
    {
      "type": "Feature",
      "geometry": {
        "type": "Point",
        "coordinates": [
          823.6282821571056,
          566.5000969135036
        ]
      },
      "properties": {
        "Q_m": 135.42208820529902,
        "eta": 0.01,
        "kind": "sample"
      }
    },
    {
      "type": "Feature",
      "geometry": {
        "type": "Point",
        "coordinates": [
          823.6282821571056,
          -566.5000969135037
        ]
      },
      "properties": {
        "Q_m": 135.42208820529984,
        "eta": 0.01,
        "kind": "sample"
      }
    },
    {
      "type": "Feature",
      "geometry": {
        "type": "Point",
        "coordinates": [
          800.8587681603888,
          -595.669478597397
        ]
      },
      "properties": {
        "Q_m": 135.4280484918866,
        "eta": 0.01,
        "kind": "sample"
      }
    },
    {
      "type": "Feature",
      "geometry": {
        "type": "Point",
        "coordinates": [
          800.8587681603888,
          595.6694785973968
        ]
      },
      "properties": {
        "Q_m": 135.4280484918872,
        "eta": 0.01,
        "kind": "sample"
      }
    },
    {
      "type": "Feature",
      "geometry": {
        "type": "Point",
        "coordinates": [
          810.2806360210991,
          -583.3876336778629
        ]
      },
      "properties": {
        "Q_m": 135.43629834876367,
        "eta": 0.01,
        "kind": "sample"
      }
    },
    {
      "type": "Feature",
      "geometry": {
        "type": "Point",
        "coordinates": [
          810.2806360210991,
          583.3876336778628
        ]
      },
      "properties": {
        "Q_m": 135.4362983487643,
        "eta": 0.01,
        "kind": "sample"
      }
    },
    {
      "type": "Feature",
      "geometry": {
        "type": "Point",
        "coordinates": [
          760.0306740973101,
          650.9377807352996
        ]
      },
      "properties": {
        "Q_m": 135.44775163003231,
        "eta": 0.01,
        "kind": "sample"
      }
    },
    {
      "type": "Feature",
      "geometry": {
        "type": "Point",
        "coordinates": [
          791.4369002996782,
          607.9513235169308
        ]
      },
      "properties": {
        "Q_m": 135.44851561667232,
        "eta": 0.01,
        "kind": "sample"
      }
    },
    {
      "type": "Feature",
      "geometry": {
        "type": "Point",
        "coordinates": [
          791.4369002996782,
          -607.9513235169309
        ]
      },
      "properties": {
        "Q_m": 135.44851561667252,
        "eta": 0.01,
        "kind": "sample"
      }
    },
    {
      "type": "Feature",
      "geometry": {
        "type": "Point",
        "coordinates": [
          754.5345845118957,
          658.6139338100083
        ]
      },
      "properties": {
        "Q_m": 135.46067715136016,
        "eta": 0.01,
        "kind": "sample"
      }
    },
    {
      "type": "Feature",
      "geometry": {
        "type": "Point",
        "coordinates": [
          836.9759282931121,
          549.6125601491444
        ]
      },
      "properties": {
        "Q_m": 135.46805577292164,
        "eta": 0.01,
        "kind": "sample"
      }
    },
    {
      "type": "Feature",
      "geometry": {
        "type": "Point",
        "coordinates": [
          819.7025038818097,
          -571.105788758329
        ]
      },
      "properties": {
        "Q_m": 135.47526027738155,
        "eta": 0.01,
        "kind": "sample"
      }
    },
    {
      "type": "Feature",
      "geometry": {
        "type": "Point",
        "coordinates": [
          819.7025038818097,
          571.1057887583289
        ]
      },
      "properties": {
        "Q_m": 135.47526027738218,
        "eta": 0.01,
        "kind": "sample"
      }
    },
    {
      "type": "Feature",
      "geometry": {
        "type": "Point",
        "coordinates": [
          782.0150324389679,
          -620.2331684364649
        ]
      },
      "properties": {
        "Q_m": 135.4958767715269,
        "eta": 0.01,
        "kind": "sample"
      }
    },
    {
      "type": "Feature",
      "geometry": {
        "type": "Point",
        "coordinates": [
          782.0150324389679,
          620.2331684364648
        ]
      },
      "properties": {
        "Q_m": 135.4958767715273,
        "eta": 0.01,
        "kind": "sample"
      }
    },
    {
      "type": "Feature",
      "geometry": {
        "type": "Point",
        "coordinates": [
          845.6126404987633,
          538.8659458445524
        ]
      },
      "properties": {
        "Q_m": 135.50264233747353,
        "eta": 0.01,
        "kind": "sample"
      }
    },
    {
      "type": "Feature",
      "geometry": {
        "type": "Point",
        "coordinates": [
          845.6126404987633,
          -538.8659458445524
        ]
      },
      "properties": {
        "Q_m": 135.50264233747458,
        "eta": 0.01,
        "kind": "sample"
      }
    },
    {
      "type": "Feature",
      "geometry": {
        "type": "Point",
        "coordinates": [
          833.0501500178161,
          554.2182519939697
        ]
      },
      "properties": {
        "Q_m": 135.5055466371531,
        "eta": 0.01,
        "kind": "sample"
      }
    },
    {
      "type": "Feature",
      "geometry": {
        "type": "Point",
        "coordinates": [
          824.4134378121648,
          -564.964866298562
        ]
      },
      "properties": {
        "Q_m": 135.50693386069884,
        "eta": 0.01,
        "kind": "sample"
      }
    },
    {
      "type": "Feature",
      "geometry": {
        "type": "Point",
        "coordinates": [
          824.4134378121648,
          564.9648662985619
        ]
      },
      "properties": {
        "Q_m": 135.50693386069904,
        "eta": 0.01,
        "kind": "sample"
      }
    },
    {
      "type": "Feature",
      "geometry": {
        "type": "Point",
        "coordinates": [
          755.3197401669548,
          657.0787031950666
        ]
      },
      "properties": {
        "Q_m": 135.51162556540157,
        "eta": 0.01,
        "kind": "sample"
      }
    },
    {
      "type": "Feature",
      "geometry": {
        "type": "Point",
        "coordinates": [
          829.12437174252,
          558.823943838795
        ]
      },
      "properties": {
        "Q_m": 135.54712230386372,
        "eta": 0.01,
        "kind": "sample"
      }
    },
    {
      "type": "Feature",
      "geometry": {
        "type": "Point",
        "coordinates": [
          761.6009854074285,
          647.8673195054162
        ]
      },
      "properties": {
        "Q_m": 135.55502610445987,
        "eta": 0.01,
        "kind": "sample"
      }
    },
    {
      "type": "Feature",
      "geometry": {
        "type": "Point",
        "coordinates": [
          837.7610839481713,
          548.0773295342027
        ]
      },
      "properties": {
        "Q_m": 135.56068461781553,
        "eta": 0.01,
        "kind": "sample"
      }
    },
    {
      "type": "Feature",
      "geometry": {
        "type": "Point",
        "coordinates": [
          772.5931645782573,
          -632.5150133559988
        ]
      },
      "properties": {
        "Q_m": 135.56846296947427,
        "eta": 0.01,
        "kind": "sample"
      }
    },
    {
      "type": "Feature",
      "geometry": {
        "type": "Point",
        "coordinates": [
          772.5931645782573,
          632.5150133559987
        ]
      },
      "properties": {
        "Q_m": 135.56846296947575,
        "eta": 0.01,
        "kind": "sample"
      }
    },
    {
      "type": "Feature",
      "geometry": {
        "type": "Polygon",
        "coordinates": [
          [
            [
              764.7416080276653,
              644.7968582755327
            ],
            [
              766.3119193377837,
              644.7968582755327
            ],
            [
              766.3119193377837,
              647.8673195054162
            ],
            [
              764.7416080276653,
              647.8673195054162
            ],
            [
              764.7416080276653,
              644.7968582755327
            ]
          ]
        ]
      },
      "properties": {
        "eta": 0.01,
        "kind": "inside_cell",
        "depth": 5,
        "approximate_area_m2": 4.821579996566116
      }
    },
    {
      "type": "Feature",
      "geometry": {
        "type": "Polygon",
        "coordinates": [
          [
            [
              822.8431265020464,
              -571.105788758329
            ],
            [
              824.4134378121648,
              -571.105788758329
            ],
            [
              824.4134378121648,
              -568.0353275284456
            ],
            [
              822.8431265020464,
              -568.0353275284456
            ],
            [
              822.8431265020464,
              -571.105788758329
            ]
          ]
        ]
      },
      "properties": {
        "eta": 0.01,
        "kind": "inside_cell",
        "depth": 5,
        "approximate_area_m2": 4.821579996566116
      }
    },
    {
      "type": "Feature",
      "geometry": {
        "type": "Polygon",
        "coordinates": [
          [
            [
              824.4134378121648,
              -568.0353275284456
            ],
            [
              825.9837491222831,
              -568.0353275284456
            ],
            [
              825.9837491222831,
              -564.964866298562
            ],
            [
              824.4134378121648,
              -564.964866298562
            ],
            [
              824.4134378121648,
              -568.0353275284456
            ]
          ]
        ]
      },
      "properties": {
        "eta": 0.01,
        "kind": "inside_cell",
        "depth": 5,
        "approximate_area_m2": 4.821579996565945
      }
    },
    {
      "type": "Feature",
      "geometry": {
        "type": "Polygon",
        "coordinates": [
          [
            [
              832.2649943627569,
              555.7534826089116
            ],
            [
              833.8353056728753,
              555.7534826089116
            ],
            [
              833.8353056728753,
              558.823943838795
            ],
            [
              832.2649943627569,
              558.823943838795
            ],
            [
              832.2649943627569,
              555.7534826089116
            ]
          ]
        ]
      },
      "properties": {
        "eta": 0.01,
        "kind": "inside_cell",
        "depth": 5,
        "approximate_area_m2": 4.821579996566116
      }
    },
    {
      "type": "Feature",
      "geometry": {
        "type": "Polygon",
        "coordinates": [
          [
            [
              829.12437174252,
              558.823943838795
            ],
            [
              830.6946830526384,
              558.823943838795
            ],
            [
              830.6946830526384,
              561.8944050686785
            ],
            [
              829.12437174252,
              561.8944050686785
            ],
            [
              829.12437174252,
              558.823943838795
            ]
          ]
        ]
      },
      "properties": {
        "eta": 0.01,
        "kind": "inside_cell",
        "depth": 5,
        "approximate_area_m2": 4.821579996566116
      }
    },
    {
      "type": "Feature",
      "geometry": {
        "type": "Polygon",
        "coordinates": [
          [
            [
              819.7025038818097,
              571.1057887583289
            ],
            [
              821.272815191928,
              571.1057887583289
            ],
            [
              821.272815191928,
              574.1762499882125
            ],
            [
              819.7025038818097,
              574.1762499882125
            ],
            [
              819.7025038818097,
              571.1057887583289
            ]
          ]
        ]
      },
      "properties": {
        "eta": 0.01,
        "kind": "inside_cell",
        "depth": 5,
        "approximate_area_m2": 4.821579996565945
      }
    },
    {
      "type": "Feature",
      "geometry": {
        "type": "Polygon",
        "coordinates": [
          [
            [
              821.272815191928,
              571.1057887583289
            ],
            [
              822.8431265020464,
              571.1057887583289
            ],
            [
              822.8431265020464,
              574.1762499882125
            ],
            [
              821.272815191928,
              574.1762499882125
            ],
            [
              821.272815191928,
              571.1057887583289
            ]
          ]
        ]
      },
      "properties": {
        "eta": 0.01,
        "kind": "inside_cell",
        "depth": 5,
        "approximate_area_m2": 4.821579996566294
      }
    },
    {
      "type": "Feature",
      "geometry": {
        "type": "Polygon",
        "coordinates": [
          [
            [
              819.7025038818097,
              574.1762499882125
            ],
            [
              821.272815191928,
              574.1762499882125
            ],
            [
              821.272815191928,
              577.2467112180959
            ],
            [
              819.7025038818097,
              577.2467112180959
            ],
            [
              819.7025038818097,
              574.1762499882125
            ]
          ]
        ]
      },
      "properties": {
        "eta": 0.01,
        "kind": "inside_cell",
        "depth": 5,
        "approximate_area_m2": 4.821579996565767
      }
    },
    {
      "type": "Feature",
      "geometry": {
        "type": "Polygon",
        "coordinates": [
          [
            [
              824.4134378121648,
              564.9648662985619
            ],
            [
              825.9837491222831,
              564.9648662985619
            ],
            [
              825.9837491222831,
              568.0353275284454
            ],
            [
              824.4134378121648,
              568.0353275284454
            ],
            [
              824.4134378121648,
              564.9648662985619
            ]
          ]
        ]
      },
      "properties": {
        "eta": 0.01,
        "kind": "inside_cell",
        "depth": 5,
        "approximate_area_m2": 4.821579996565767
      }
    },
    {
      "type": "Feature",
      "geometry": {
        "type": "Polygon",
        "coordinates": [
          [
            [
              822.8431265020464,
              568.0353275284454
            ],
            [
              824.4134378121648,
              568.0353275284454
            ],
            [
              824.4134378121648,
              571.1057887583289
            ],
            [
              822.8431265020464,
              571.1057887583289
            ],
            [
              822.8431265020464,
              568.0353275284454
            ]
          ]
        ]
      },
      "properties": {
        "eta": 0.01,
        "kind": "inside_cell",
        "depth": 5,
        "approximate_area_m2": 4.821579996566294
      }
    },
    {
      "type": "Feature",
      "geometry": {
        "type": "Polygon",
        "coordinates": [
          [
            [
              825.9837491222831,
              564.9648662985619
            ],
            [
              827.5540604324016,
              564.9648662985619
            ],
            [
              827.5540604324016,
              568.0353275284454
            ],
            [
              825.9837491222831,
              568.0353275284454
            ],
            [
              825.9837491222831,
              564.9648662985619
            ]
          ]
        ]
      },
      "properties": {
        "eta": 0.01,
        "kind": "inside_cell",
        "depth": 5,
        "approximate_area_m2": 4.821579996566116
      }
    },
    {
      "type": "Feature",
      "geometry": {
        "type": "Polygon",
        "coordinates": [
          [
            [
              810.2806360210991,
              583.3876336778628
            ],
            [
              811.8509473312175,
              583.3876336778628
            ],
            [
              811.8509473312175,
              586.4580949077463
            ],
            [
              810.2806360210991,
              586.4580949077463
            ],
            [
              810.2806360210991,
              583.3876336778628
            ]
          ]
        ]
      },
      "properties": {
        "eta": 0.01,
        "kind": "inside_cell",
        "depth": 5,
        "approximate_area_m2": 4.821579996566116
      }
    },
    {
      "type": "Feature",
      "geometry": {
        "type": "Polygon",
        "coordinates": [
          [
            [
              811.8509473312175,
              583.3876336778628
            ],
            [
              813.421258641336,
              583.3876336778628
            ],
            [
              813.421258641336,
              586.4580949077463
            ],
            [
              811.8509473312175,
              586.4580949077463
            ],
            [
              811.8509473312175,
              583.3876336778628
            ]
          ]
        ]
      },
      "properties": {
        "eta": 0.01,
        "kind": "inside_cell",
        "depth": 5,
        "approximate_area_m2": 4.821579996566116
      }
    },
    {
      "type": "Feature",
      "geometry": {
        "type": "Polygon",
        "coordinates": [
          [
            [
              810.2806360210991,
              586.4580949077463
            ],
            [
              811.8509473312175,
              586.4580949077463
            ],
            [
              811.8509473312175,
              589.5285561376298
            ],
            [
              810.2806360210991,
              589.5285561376298
            ],
            [
              810.2806360210991,
              586.4580949077463
            ]
          ]
        ]
      },
      "properties": {
        "eta": 0.01,
        "kind": "inside_cell",
        "depth": 5,
        "approximate_area_m2": 4.821579996566294
      }
    },
    {
      "type": "Feature",
      "geometry": {
        "type": "Polygon",
        "coordinates": [
          [
            [
              807.1400134008622,
              589.5285561376298
            ],
            [
              808.7103247109807,
              589.5285561376298
            ],
            [
              808.7103247109807,
              592.5990173675134
            ],
            [
              807.1400134008622,
              592.5990173675134
            ],
            [
              807.1400134008622,
              589.5285561376298
            ]
          ]
        ]
      },
      "properties": {
        "eta": 0.01,
        "kind": "inside_cell",
        "depth": 5,
        "approximate_area_m2": 4.821579996566294
      }
    },
    {
      "type": "Feature",
      "geometry": {
        "type": "Polygon",
        "coordinates": [
          [
            [
              808.7103247109807,
              589.5285561376298
            ],
            [
              810.2806360210991,
              589.5285561376298
            ],
            [
              810.2806360210991,
              592.5990173675134
            ],
            [
              808.7103247109807,
              592.5990173675134
            ],
            [
              808.7103247109807,
              589.5285561376298
            ]
          ]
        ]
      },
      "properties": {
        "eta": 0.01,
        "kind": "inside_cell",
        "depth": 5,
        "approximate_area_m2": 4.821579996566294
      }
    }
  ]
}